start=new Date('2022-01-18T00:00:00.000Z').valueOf();
sats=[{"PERIAPSIS":"546.486","BSTAR":"-0.00022962000000","SEMIMAJOR_AXIS":"6925.408","OBJECT_TYPE":"PAYLOAD","EPOCH":"2022-01-17T20:04:56.133120","NORAD_CAT_ID":"47732","DECAY_DATE":null,"TIME_SYSTEM":"UTC","FILE":"3276075","MEAN_MOTION":"15.06380717","ECCENTRICITY":"0.00011360","RA_OF_ASC_NODE":"73.5771","ARG_OF_PERICENTER":"108.2395","CENTER_NAME":"EARTH","OBJECT_NAME":"STARLINK-2142","COUNTRY_CODE":"US","APOAPSIS":"548.059","MEAN_ANOMALY":"251.8718","RCS_SIZE":"LARGE","CLASSIFICATION_TYPE":"U","REF_FRAME":"TEME","SITE":"AFETR","ELEMENT_SET_NO":"999","PERIOD":"95.593","INCLINATION":"53.0558","TLE_LINE2":"2 47732  53.0558  73.5771 0001136 108.2395 251.8718 15.06380717 51051","GP_ID":"194088779","TLE_LINE1":"1 47732U 21017L   22017.83676080 -.00003698  00000-0 -22962-3 0  9996","REV_AT_EPOCH":"5105","LAUNCH_DATE":"2021-03-04","EPHEMERIS_TYPE":"0","MEAN_ELEMENT_THEORY":"SGP4","OBJECT_ID":"2021-017L","MEAN_MOTION_DDOT":"0.0000000000000","MEAN_MOTION_DOT":"-0.00003698"},{"PERIAPSIS":"545.885","SEMIMAJOR_AXIS":"6925.379","OBJECT_TYPE":"PAYLOAD","BSTAR":"-0.00016974000000","NORAD_CAT_ID":"47733","EPOCH":"2022-01-17T19:24:28.839168","DECAY_DATE":null,"TIME_SYSTEM":"UTC","MEAN_MOTION":"15.06390106","FILE":"3276075","RA_OF_ASC_NODE":"168.7275","ARG_OF_PERICENTER":"79.5577","CENTER_NAME":"EARTH","ECCENTRICITY":"0.00019620","OBJECT_NAME":"STARLINK-2143","COUNTRY_CODE":"US","APOAPSIS":"548.603","REF_FRAME":"TEME","MEAN_ANOMALY":"280.5633","RCS_SIZE":"LARGE","CLASSIFICATION_TYPE":"U","ELEMENT_SET_NO":"999","PERIOD":"95.593","INCLINATION":"53.0481","SITE":"AFETR","TLE_LINE2":"2 47733  53.0481 168.7275 0001962  79.5577 280.5633 15.06390106 49765","GP_ID":"194088528","REV_AT_EPOCH":"4976","TLE_LINE1":"1 47733U 21017M   22017.80866712 -.00002808  00000-0 -16974-3 0  9995","MEAN_MOTION_DDOT":"0.0000000000000","MEAN_MOTION_DOT":"-0.00002808","LAUNCH_DATE":"2021-03-04","MEAN_ELEMENT_THEORY":"SGP4","EPHEMERIS_TYPE":"0","OBJECT_ID":"2021-017M"},{"TIME_SYSTEM":"UTC","FILE":"3276075","MEAN_MOTION":"15.06399098","ECCENTRICITY":"0.00020670","ARG_OF_PERICENTER":"79.1247","RA_OF_ASC_NODE":"158.9331","CENTER_NAME":"EARTH","PERIAPSIS":"545.785","BSTAR":"-0.00015384000000","SEMIMAJOR_AXIS":"6925.351","OBJECT_TYPE":"PAYLOAD","NORAD_CAT_ID":"47734","EPOCH":"2022-01-17T18:16:49.098432","DECAY_DATE":null,"SITE":"AFETR","ELEMENT_SET_NO":"999","PERIOD":"95.592","INCLINATION":"53.0555","TLE_LINE2":"2 47734  53.0555 158.9331 0002067  79.1247 280.9975 15.06399098 49862","GP_ID":"194087778","TLE_LINE1":"1 47734U 21017N   22017.76167938 -.00002572  00000-0 -15384-3 0  9997","REV_AT_EPOCH":"4986","EPHEMERIS_TYPE":"0","LAUNCH_DATE":"2021-03-04","MEAN_ELEMENT_THEORY":"SGP4","OBJECT_ID":"2021-017N","MEAN_MOTION_DDOT":"0.0000000000000","MEAN_MOTION_DOT":"-0.00002572","OBJECT_NAME":"STARLINK-2144","COUNTRY_CODE":"US","APOAPSIS":"548.648","RCS_SIZE":"LARGE","MEAN_ANOMALY":"280.9975","CLASSIFICATION_TYPE":"U","REF_FRAME":"TEME"},{"NORAD_CAT_ID":"47735","EPOCH":"2022-01-17T21:28:31.565856","DECAY_DATE":null,"PERIAPSIS":"546.233","SEMIMAJOR_AXIS":"6925.397","OBJECT_TYPE":"PAYLOAD","BSTAR":"-0.00010095000000","ARG_OF_PERICENTER":"76.5101","RA_OF_ASC_NODE":"83.3136","CENTER_NAME":"EARTH","ECCENTRICITY":"0.00014850","TIME_SYSTEM":"UTC","MEAN_MOTION":"15.06384336","FILE":"3276075","APOAPSIS":"548.290","REF_FRAME":"TEME","RCS_SIZE":"LARGE","MEAN_ANOMALY":"283.6054","CLASSIFICATION_TYPE":"U","OBJECT_NAME":"STARLINK-2146","COUNTRY_CODE":"US","REV_AT_EPOCH":"5091","TLE_LINE1":"1 47735U 21017P   22017.89480979 -.00001784  00000-0 -10095-3 0  9993","MEAN_MOTION_DDOT":"0.0000000000000","MEAN_MOTION_DOT":"-0.00001784","LAUNCH_DATE":"2021-03-04","EPHEMERIS_TYPE":"0","MEAN_ELEMENT_THEORY":"SGP4","OBJECT_ID":"2021-017P","ELEMENT_SET_NO":"999","PERIOD":"95.593","INCLINATION":"53.0560","SITE":"AFETR","TLE_LINE2":"2 47735  53.0560  83.3136 0001485  76.5101 283.6054 15.06384336 50911","GP_ID":"194088028"},{"EPHEMERIS_TYPE":"0","LAUNCH_DATE":"2021-03-04","MEAN_ELEMENT_THEORY":"SGP4","OBJECT_ID":"2021-017Q","MEAN_MOTION_DDOT":"0.0000000000000","MEAN_MOTION_DOT":"-0.00000262","REV_AT_EPOCH":"5002","TLE_LINE1":"1 47736U 21017Q   22017.66306077 -.00000262  00000-0  13086-5 0  9999","TLE_LINE2":"2 47736  53.0551 149.3738 0001496  71.1192 288.9959 15.06410344 50029","GP_ID":"194088279","SITE":"AFETR","ELEMENT_SET_NO":"999","PERIOD":"95.591","INCLINATION":"53.0551","RCS_SIZE":"LARGE","MEAN_ANOMALY":"288.9959","CLASSIFICATION_TYPE":"U","REF_FRAME":"TEME","APOAPSIS":"548.218","COUNTRY_CODE":"US","OBJECT_NAME":"STARLINK-2147","ECCENTRICITY":"0.00014960","RA_OF_ASC_NODE":"149.3738","ARG_OF_PERICENTER":"71.1192","CENTER_NAME":"EARTH","FILE":"3276075","MEAN_MOTION":"15.06410344","TIME_SYSTEM":"UTC","DECAY_DATE":null,"NORAD_CAT_ID":"47736","EPOCH":"2022-01-17T15:54:48.450528","BSTAR":"0.00000130860000","SEMIMAJOR_AXIS":"6925.317","OBJECT_TYPE":"PAYLOAD","PERIAPSIS":"546.146"},{"ECCENTRICITY":"0.00013780","ARG_OF_PERICENTER":"93.8758","RA_OF_ASC_NODE":"83.3971","CENTER_NAME":"EARTH","FILE":"3276075","MEAN_MOTION":"15.06383333","TIME_SYSTEM":"UTC","DECAY_DATE":null,"EPOCH":"2022-01-17T21:03:20.120544","NORAD_CAT_ID":"47737","BSTAR":"-0.00018690000000","SEMIMAJOR_AXIS":"6925.400","OBJECT_TYPE":"PAYLOAD","PERIAPSIS":"546.310","EPHEMERIS_TYPE":"0","LAUNCH_DATE":"2021-03-04","MEAN_ELEMENT_THEORY":"SGP4","OBJECT_ID":"2021-017R","MEAN_MOTION_DDOT":"0.0000000000000","MEAN_MOTION_DOT":"-0.00003063","TLE_LINE1":"1 47737U 21017R   22017.87731621 -.00003063  00000-0 -18690-3 0  9997","REV_AT_EPOCH":"5096","TLE_LINE2":"2 47737  53.0545  83.3971 0001378  93.8758 266.2389 15.06383333 50963","GP_ID":"194089029","SITE":"AFETR","ELEMENT_SET_NO":"999","PERIOD":"95.593","INCLINATION":"53.0545","RCS_SIZE":"LARGE","MEAN_ANOMALY":"266.2389","CLASSIFICATION_TYPE":"U","REF_FRAME":"TEME","APOAPSIS":"548.219","COUNTRY_CODE":"US","OBJECT_NAME":"STARLINK-2148"},{"COUNTRY_CODE":"US","OBJECT_NAME":"STARLINK-2149","REF_FRAME":"TEME","CLASSIFICATION_TYPE":"U","RCS_SIZE":"LARGE","MEAN_ANOMALY":"217.9199","APOAPSIS":"550.881","GP_ID":"194087278","TLE_LINE2":"2 47738  53.0533 149.0126 0005270 142.2161 217.9199 15.06394296 50035","PERIOD":"95.593","ELEMENT_SET_NO":"999","INCLINATION":"53.0533","SITE":"AFETR","MEAN_MOTION_DOT":"-0.00000915","MEAN_MOTION_DDOT":"0.0000000000000","OBJECT_ID":"2021-017S","LAUNCH_DATE":"2021-03-04","EPHEMERIS_TYPE":"0","MEAN_ELEMENT_THEORY":"SGP4","REV_AT_EPOCH":"5003","TLE_LINE1":"1 47738U 21017S   22017.74416248 -.00000915  00000-0 -42389-4 0  9995","OBJECT_TYPE":"PAYLOAD","SEMIMAJOR_AXIS":"6925.366","BSTAR":"-0.00004238900000","PERIAPSIS":"543.581","DECAY_DATE":null,"EPOCH":"2022-01-17T17:51:35.638272","NORAD_CAT_ID":"47738","MEAN_MOTION":"15.06394296","FILE":"3276075","TIME_SYSTEM":"UTC","CENTER_NAME":"EARTH","ARG_OF_PERICENTER":"142.2161","RA_OF_ASC_NODE":"149.0126","ECCENTRICITY":"0.00052700"},{"COUNTRY_CODE":"US","OBJECT_NAME":"STARLINK-2150","CLASSIFICATION_TYPE":"U","RCS_SIZE":"LARGE","MEAN_ANOMALY":"277.1829","REF_FRAME":"TEME","APOAPSIS":"548.462","GP_ID":"194087528","TLE_LINE2":"2 47739  53.0541 173.7962 0001827  82.9367 277.1829 15.06405618 49698","SITE":"AFETR","PERIOD":"95.592","ELEMENT_SET_NO":"999","INCLINATION":"53.0541","OBJECT_ID":"2021-017T","EPHEMERIS_TYPE":"0","LAUNCH_DATE":"2021-03-04","MEAN_ELEMENT_THEORY":"SGP4","MEAN_MOTION_DOT":"-0.00000354","MEAN_MOTION_DDOT":"0.0000000000000","TLE_LINE1":"1 47739U 21017T   22017.79161815 -.00000354  00000-0 -48812-5 0  9993","REV_AT_EPOCH":"4969","BSTAR":"-0.00000488120000","OBJECT_TYPE":"PAYLOAD","SEMIMAJOR_AXIS":"6925.331","PERIAPSIS":"545.931","DECAY_DATE":null,"NORAD_CAT_ID":"47739","EPOCH":"2022-01-17T18:59:55.808160","FILE":"3276075","MEAN_MOTION":"15.06405618","TIME_SYSTEM":"UTC","ECCENTRICITY":"0.00018270","CENTER_NAME":"EARTH","RA_OF_ASC_NODE":"173.7962","ARG_OF_PERICENTER":"82.9367"},{"CENTER_NAME":"EARTH","ARG_OF_PERICENTER":"92.5336","RA_OF_ASC_NODE":"158.8886","ECCENTRICITY":"0.00015720","MEAN_MOTION":"15.06393807","FILE":"3276075","TIME_SYSTEM":"UTC","DECAY_DATE":null,"NORAD_CAT_ID":"47740","EPOCH":"2022-01-17T18:32:43.844352","OBJECT_TYPE":"PAYLOAD","SEMIMAJOR_AXIS":"6925.368","BSTAR":"-0.00008950500000","PERIAPSIS":"546.144","MEAN_MOTION_DOT":"-0.00001614","MEAN_MOTION_DDOT":"0.0000000000000","OBJECT_ID":"2021-017U","EPHEMERIS_TYPE":"0","LAUNCH_DATE":"2021-03-04","MEAN_ELEMENT_THEORY":"SGP4","TLE_LINE1":"1 47740U 21017U   22017.77272968 -.00001614  00000-0 -89505-4 0  9998","REV_AT_EPOCH":"4989","GP_ID":"194088780","TLE_LINE2":"2 47740  53.0565 158.8886 0001572  92.5336 267.5833 15.06393807 49891","PERIOD":"95.593","ELEMENT_SET_NO":"999","INCLINATION":"53.0565","SITE":"AFETR","REF_FRAME":"TEME","CLASSIFICATION_TYPE":"U","MEAN_ANOMALY":"267.5833","RCS_SIZE":"LARGE","APOAPSIS":"548.321","COUNTRY_CODE":"US","OBJECT_NAME":"STARLINK-2152"},{"MEAN_MOTION":"15.06386803","FILE":"3276075","TIME_SYSTEM":"UTC","ARG_OF_PERICENTER":"88.4867","RA_OF_ASC_NODE":"158.8183","CENTER_NAME":"EARTH","ECCENTRICITY":"0.00017750","SEMIMAJOR_AXIS":"6925.389","OBJECT_TYPE":"PAYLOAD","BSTAR":"-0.00008202400000","PERIAPSIS":"546.025","DECAY_DATE":null,"EPOCH":"2022-01-17T18:53:57.919488","NORAD_CAT_ID":"47741","TLE_LINE2":"2 47741  53.0527 158.8183 0001775  88.4867 271.6326 15.06386803 49855","GP_ID":"194088529","INCLINATION":"53.0527","PERIOD":"95.593","ELEMENT_SET_NO":"999","SITE":"AFETR","MEAN_MOTION_DDOT":"0.0000000000000","MEAN_MOTION_DOT":"-0.00001503","MEAN_ELEMENT_THEORY":"SGP4","LAUNCH_DATE":"2021-03-04","EPHEMERIS_TYPE":"0","OBJECT_ID":"2021-017V","REV_AT_EPOCH":"4985","TLE_LINE1":"1 47741U 21017V   22017.78747592 -.00001503  00000-0 -82024-4 0  9996","COUNTRY_CODE":"US","OBJECT_NAME":"STARLINK-2154","REF_FRAME":"TEME","MEAN_ANOMALY":"271.6326","RCS_SIZE":"LARGE","CLASSIFICATION_TYPE":"U","APOAPSIS":"548.483"}];
